ONEWEB-0156             
1 48052U 21025L   25027.60375437  .00000261  00000+0  68093-3 0  9997
2 48052  87.8880  60.7383 0001842  93.8590 266.2749 13.13470246187212
ONEWEB-0161             
1 48053U 21025M   25027.50058870 -.00000296  00000+0 -84479-3 0  9992
2 48053  87.8884  60.7716 0002001  92.9402 267.1956 13.13470756187123
ONEWEB-0158             
1 48054U 21025N   25027.53869284  .00000404  00000+0  10714-2 0  9994
2 48054  87.8880  60.7490 0001777  91.2103 268.9230 13.13470351187257
ONEWEB-0157             
1 48055U 21025P   25027.48630300 -.00000128  00000+0 -38515-3 0  9999
2 48055  87.8880  60.7711 0002298  91.2902 268.8490 13.13470457187186
ONEWEB-0162             
1 48056U 21025Q   25027.29746241  .00000268  00000+0  69768-3 0  9998
2 48056  87.8879  60.8021 0001837  92.2601 267.8738 13.13469875187136
ONEWEB-0155             
1 48057U 21025R   25027.08955965  .00000204  00000+0  52237-3 0  9994
2 48057  87.8881  60.8575 0001984  97.9264 262.2090 13.13469369187244
ONEWEB-0149             
1 48058U 21025S   25027.49107133 -.00000222  00000+0 -64406-3 0  9999
2 48058  87.8880  60.7722 0001750  87.0213 273.1116 13.13469078187104
ONEWEB-0148             
1 48059U 21025T   25027.60851366  .00000382  00000+0  10101-2 0  9994
2 48059  87.8882  60.7675 0002010  73.6487 286.4864 13.13470367187243
ONEWEB-0160             
1 48060U 21025U   25027.09114334  .00000173  00000+0  43982-3 0  9998
2 48060  87.8884  60.8670 0001175 116.9612 243.1638 13.13469621187122
ONEWEB-0163             
1 48061U 21025V   25027.45775338  .00000374  00000+0  98903-3 0  9992
2 48061  87.8881  60.7800 0002126  90.8555 269.2818 13.13469868187297
ONEWEB-0159             
1 48062U 21025W   25027.06575569  .00000223  00000+0  57678-3 0  9991
2 48062  87.8879  60.8396 0001955  89.2371 270.8982 13.13470573187164
ONEWEB-0164             
1 48063U 21025X   25027.50535704 -.00000197  00000+0 -57547-3 0  9995
2 48063  87.8879  60.7623 0001855  99.1374 260.9965 13.13470953187207
ONEWEB-0167             
1 48064U 21025Y   25027.45854888  .00000373  00000+0  98543-3 0  9992
2 48064  87.8890  60.7875 0001998  91.3713 268.7644 13.13471711187189
ONEWEB-0166             
1 48065U 21025Z   25027.09908042 -.00000055  00000+0 -18468-3 0  9992
2 48065  87.8879  60.8330 0001839  88.2839 271.8501 13.13469689187214
ONEWEB-0151             
1 48066U 21025AA  25027.48155163 -.00000022  00000+0 -94148-4 0  9998
2 48066  87.8881  60.7755 0001918  98.4829 261.6518 13.13469174187201
ONEWEB-0170             
1 48067U 21025AB  25027.48947458 -.00000221  00000+0 -64041-3 0  9994
2 48067  87.8881  60.7778 0001786 112.4552 247.6766 13.13470764187161
ONEWEB-0168             
1 48068U 21025AC  25027.09432706  .00000111  00000+0  26942-3 0  9991
2 48068  87.8884  60.8332 0001914  93.9145 266.2203 13.13470626187122
ONEWEB-0173             
1 48069U 21025AD  25027.08638606  .00000280  00000+0  73224-3 0  9990
2 48069  87.8883  60.8441 0002317  96.8464 263.2928 13.13470299187360
ONEWEB-0171             
1 48070U 21025AE  25027.50376392 -.00000351  00000+0 -99644-3 0  9995
2 48070  87.8884  60.7973 0001898  98.2484 261.8860 13.13469402187232
ONEWEB-0172             
1 48071U 21025AF  25027.48314372 -.00000068  00000+0 -22137-3 0  9991
2 48071  87.8884  60.7676 0002004  96.8906 263.2451 13.13469313188128
ONEWEB-0174             
1 48072U 21025AG  25027.08479959  .00000349  00000+0  92174-3 0  9999
2 48072  87.8885  60.8613 0001878  92.8222 267.3122 13.13469590187392
ONEWEB-0175             
1 48073U 21025AH  25027.49424521 -.00000268  00000+0 -76999-3 0  9999
2 48073  87.8877  60.7543 0001899 106.1228 254.0110 13.13468917187104
ONEWEB-0177             
1 48074U 21025AJ  25027.50693547 -.00000174  00000+0 -51153-3 0  9999
2 48074  87.8877  60.7636 0002165  91.0225 269.1152 13.13470893187293
ONEWEB-0178             
1 48075U 21025AK  25027.14365307  .00000261  00000+0  67848-3 0  9993
2 48075  87.8887  60.8697 0002067  92.8407 267.2959 13.13470367187295
ONEWEB-0108             
1 48076U 21025AL  25027.48471711 -.00000089  00000+0 -27867-3 0  9995
2 48076  87.8879  60.7640 0001632  91.8725 268.2591 13.13470316187267
ONEWEB-0169             
1 48077U 21025AM  25027.05940223  .00000113  00000+0  27510-3 0  9999
2 48077  87.8879  60.8650 0001618  90.4952 269.6362 13.13470318185868
ONEWEB-0176             
1 48210U 21031A   25027.45244001  .00000255  00000+0  65357-3 0  9998
2 48210  87.8993  30.2543 0001797  90.6398 269.4938 13.14502542181870
ONEWEB-0184             
1 48211U 21031B   25027.72993951 -.00000087  00000+0 -27033-3 0  9998
2 48211  87.8988  30.1745 0002382 109.8117 250.3269 13.14503004181882
ONEWEB-0179             
1 48212U 21031C   25027.47146810  .00000075  00000+0  16717-3 0  9997
2 48212  87.8994  30.2375 0001879  86.9049 273.2296 13.14502610181896
ONEWEB-0180             
1 48213U 21031D   25027.50477059 -.00000037  00000+0 -13422-3 0  9994
2 48213  87.8989  30.2227 0002061  92.3559 267.7806 13.14502786181785
ONEWEB-0218             
1 48214U 21031E   25027.45085755  .00000264  00000+0  67783-3 0  9996
2 48214  87.8989  30.2348 0002634 105.7340 254.4081 13.14501625181939
ONEWEB-0209             
1 48215U 21031F   25027.43975135  .00000184  00000+0  46048-3 0  9997
2 48215  87.8991  30.2764 0001963  86.2834 273.8520 13.14502399181932
ONEWEB-0198             
1 48216U 21031G   25027.50001210 -.00000148  00000+0 -43432-3 0  9996
2 48216  87.8991  30.2671 0002201  93.3467 266.7915 13.14502840182051
ONEWEB-0189             
1 48217U 21031H   25027.74104196  .00000081  00000+0  18445-3 0  9990
2 48217  87.8989  30.1938 0002293  92.4782 267.6610 13.14503819181828
ONEWEB-0196             
1 48218U 21031J   25027.71884555 -.00000151  00000+0 -44071-3 0  9996
2 48218  87.8994  30.2063 0001847  90.1560 269.9782 13.14505149181810
ONEWEB-0183             
1 48219U 21031K   25027.46512395  .00000205  00000+0  51820-3 0  9997
2 48219  87.8994  30.2709 0001808  84.5421 275.5915 13.14501969181882
ONEWEB-0185             
1 48220U 21031L   25027.49129043 -.00000182  00000+0 -52600-3 0  9999
2 48220  87.8991  30.2362 0002021  83.6380 276.4980 13.14502462181812
ONEWEB-0187             
1 48221U 21031M   25027.68951530  .00000239  00000+0  61124-3 0  9997
2 48221  87.8994  30.2324 0001860  85.1683 274.9659 13.14502445181858
ONEWEB-0192             
1 48222U 21031N   25027.44132958  .00000213  00000+0  54008-3 0  9992
2 48222  87.8991  30.2796 0001886  91.5082 268.6263 13.14503510181733
ONEWEB-0219             
1 48223U 21031P   25027.42070973 -.00000140  00000+0 -41345-3 0  9990
2 48223  87.8990  30.2567 0001969  86.0648 274.0706 13.14503177181932
ONEWEB-0202             
1 48224U 21031Q   25027.70616728 -.00000009  00000+0 -58511-4 0  9994
2 48224  87.8993  30.2167 0002560  98.1417 262.0003 13.14504453181966
ONEWEB-0204             
1 48225U 21031R   25027.43577664  .00000140  00000+0  34379-3 0  9999
2 48225  87.8990  30.2827 0001611  79.5467 280.5844 13.14503366181815
ONEWEB-0205             
1 48226U 21031S   25027.48732335 -.00000156  00000+0 -45642-3 0  9997
2 48226  87.8991  30.2436 0001970  85.7396 274.3959 13.14502626181839
ONEWEB-0206             
1 48227U 21031T   25027.53646824  .00000234  00000+0  59610-3 0  9996
2 48227  87.8989  30.2178 0001928  84.7271 275.4079 13.14500896181803
ONEWEB-0182             
1 48228U 21031U   25027.45561265  .00000296  00000+0  76294-3 0  9998
2 48228  87.8993  30.2707 0001687  85.9924 274.1399 13.14501660181998
ONEWEB-0186             
1 48229U 21031V   25027.46671006  .00000169  00000+0  42154-3 0  9992
2 48229  87.8992  30.2308 0001922  87.6233 272.5117 13.14502520181940
ONEWEB-0181             
1 48230U 21031W   25027.44450331  .00000269  00000+0  69082-3 0  9998
2 48230  87.8992  30.3062 0001960  92.0227 268.1128 13.14503647181792
ONEWEB-0188             
1 48231U 21031X   25027.48256436 -.00000103  00000+0 -31143-3 0  9999
2 48231  87.8992  30.2916 0001858  87.6104 272.5238 13.14502733181707
ONEWEB-0220             
1 48232U 21031Y   25027.44608966  .00000251  00000+0  64255-3 0  9997
2 48232  87.8985  30.2503 0002045  82.7213 277.4149 13.14503313181966
ONEWEB-0165             
1 48233U 21031Z   25027.70298874  .00000055  00000+0  11309-3 0  9994
2 48233  87.8994  30.2305 0002000  88.1884 271.9475 13.14502796181956
ONEWEB-0199             
1 48234U 21031AA  25027.53489967  .00000279  00000+0  71898-3 0  9998
2 48234  87.8991  30.2304 0001654  92.3595 267.7725 13.14502521181837
ONEWEB-0203             
1 48235U 21031AB  25027.44926892  .00000268  00000+0  68722-3 0  9992
2 48235  87.8991  30.2495 0001726 103.0180 257.1142 13.14502923181831
ONEWEB-0197             
1 48236U 21031AC  25027.50080441 -.00000156  00000+0 -45433-3 0  9993
2 48236  87.8992  30.2497 0001679  79.8462 280.2857 13.14502300181755
ONEWEB-0194             
1 48237U 21031AD  25027.47939237 -.00000104  00000+0 -31606-3 0  9996
2 48237  87.8994  30.2488 0001636  96.9095 263.2220 13.14502625181927
ONEWEB-0193             
1 48238U 21031AE  25027.49524468 -.00000143  00000+0 -42137-3 0  9999
2 48238  87.8992  30.2536 0001887  93.3014 266.8331 13.14502298181872
ONEWEB-0191             
1 48239U 21031AF  25027.73469340 -.00000015  00000+0 -73910-4 0  9996
2 48239  87.8989  30.1827 0001884  92.0197 268.1148 13.14504034181765
ONEWEB-0195             
1 48240U 21031AG  25027.48336131 -.00000129  00000+0 -38183-3 0  9999
2 48240  87.8989  30.2310 0002261  91.6562 268.4827 13.14502818181716
ONEWEB-0201             
1 48241U 21031AH  25027.70061467  .00000087  00000+0  20072-3 0  9991
2 48241  87.8994  30.2300 0001963  87.2930 272.8425 13.14501562181976
ONEWEB-0207             
1 48242U 21031AJ  25027.45164728  .00000276  00000+0  71108-3 0  9994
2 48242  87.8992  30.2426 0001833  82.3147 277.8191 13.14503374181851
